{
  "type": "FeatureCollection",
  "features": [
    {
      "type": "Feature",
      "properties": {
        "norad_id": 34079,
        "name": "IRIDIUM 33 DEB",
        "group": "iridium-33-debris",
        "lat": -45.413891433887656,
        "lon": 0.12315668348718903,
        "alt_km": 621.2065326801239,
        "timestamp": "2025-12-23T09:49:07.467943+00:00",
        "meta_object_name": "IRIDIUM 33 DEB",
        "meta_object_id": "1997-051CN",
        "meta_epoch": "2025-12-21T13:15:26.349984",
        "meta_mean_motion": 14.83733705,
        "meta_eccentricity": 0.000457,
        "meta_inclination": 86.3769,
        "meta_ra_of_asc_node": 4.6535,
        "meta_arg_of_pericenter": 336.3629,
        "meta_mean_anomaly": 147.0439,
        "meta_ephemeris_type": 0,
        "meta_classification_type": "U",
        "meta_norad_cat_id": 34079,
        "meta_element_set_no": 999,
        "meta_rev_at_epoch": 89108,
        "meta_bstar": 0.0012935,
        "meta_mean_motion_dot": 0.00010729,
        "meta_mean_motion_ddot": 0,
        "tle_line1": "1 34079U 97051CN  25355.55238831  .00010729  00000+0  12935-2 0  9990",
        "tle_line2": "2 34079  86.3769   4.6535 0004570 336.3629 147.0439 14.83733705891080"
      },
      "geometry": {
        "type": "Point",
        "coordinates": [
          0.12315668348718903,
          -45.413891433887656
        ]
      }
    },
    {
      "type": "Feature",
      "properties": {
        "norad_id": 34088,
        "name": "IRIDIUM 33 DEB",
        "group": "iridium-33-debris",
        "lat": -8.989574160460545,
        "lon": 25.24605867642621,
        "alt_km": 600.6260558447848,
        "timestamp": "2025-12-23T09:49:07.467953+00:00",
        "meta_object_name": "IRIDIUM 33 DEB",
        "meta_object_id": "1997-051CX",
        "meta_epoch": "2025-12-22T20:09:23.733792",
        "meta_mean_motion": 14.9180728,
        "meta_eccentricity": 0.00068167,
        "meta_inclination": 86.3835,
        "meta_ra_of_asc_node": 26.0811,
        "meta_arg_of_pericenter": 144.8678,
        "meta_mean_anomaly": 31.0989,
        "meta_ephemeris_type": 0,
        "meta_classification_type": "U",
        "meta_norad_cat_id": 34088,
        "meta_element_set_no": 999,
        "meta_rev_at_epoch": 88892,
        "meta_bstar": 0.0023808033,
        "meta_mean_motion_dot": 0.00024099,
        "meta_mean_motion_ddot": 0,
        "tle_line1": "1 34088U 97051CX  25356.83985803  .00024099  00000+0  23808-2 0  9996",
        "tle_line2": "2 34088  86.3835  26.0811 0006816 144.8678  31.0989 14.91807280888920"
      },
      "geometry": {
        "type": "Point",
        "coordinates": [
          25.24605867642621,
          -8.989574160460545
        ]
      }
    },
    {
      "type": "Feature",
      "properties": {
        "norad_id": 34091,
        "name": "IRIDIUM 33 DEB",
        "group": "iridium-33-debris",
        "lat": 4.5981147426764375,
        "lon": -118.34960669066209,
        "alt_km": 619.407972275777,
        "timestamp": "2025-12-23T09:49:07.467963+00:00",
        "meta_object_name": "IRIDIUM 33 DEB",
        "meta_object_id": "1997-051DA",
        "meta_epoch": "2025-12-22T15:12:28.903968",
        "meta_mean_motion": 14.82502954,
        "meta_eccentricity": 0.00341969,
        "meta_inclination": 86.3411,
        "meta_ra_of_asc_node": 62.3008,
        "meta_arg_of_pericenter": 257.7547,
        "meta_mean_anomaly": 101.9845,
        "meta_ephemeris_type": 0,
        "meta_classification_type": "U",
        "meta_norad_cat_id": 34091,
        "meta_element_set_no": 999,
        "meta_rev_at_epoch": 88013,
        "meta_bstar": 0.0048076531,
        "meta_mean_motion_dot": 0.00039186,
        "meta_mean_motion_ddot": 0,
        "tle_line1": "1 34091U 97051DA  25356.63366787  .00039186  00000+0  48077-2 0  9990",
        "tle_line2": "2 34091  86.3411  62.3008 0034196 257.7547 101.9845 14.82502954880139"
      },
      "geometry": {
        "type": "Point",
        "coordinates": [
          -118.34960669066209,
          4.5981147426764375
        ]
      }
    },
    {
      "type": "Feature",
      "properties": {
        "norad_id": 34097,
        "name": "IRIDIUM 33 DEB",
        "group": "iridium-33-debris",
        "lat": 47.293567939253755,
        "lon": 0.8272457271486869,
        "alt_km": 761.052747395177,
        "timestamp": "2025-12-23T09:49:07.467973+00:00",
        "meta_object_name": "IRIDIUM 33 DEB",
        "meta_object_id": "1997-051DG",
        "meta_epoch": "2025-12-22T10:10:07.648896",
        "meta_mean_motion": 14.34850685,
        "meta_eccentricity": 0.00816282,
        "meta_inclination": 86.1999,
        "meta_ra_of_asc_node": 357.1326,
        "meta_arg_of_pericenter": 330.4879,
        "meta_mean_anomaly": 29.172,
        "meta_ephemeris_type": 0,
        "meta_classification_type": "U",
        "meta_norad_cat_id": 34097,
        "meta_element_set_no": 999,
        "meta_rev_at_epoch": 87258,
        "meta_bstar": 0.0014468202,
        "meta_mean_motion_dot": 4.282e-05,
        "meta_mean_motion_ddot": 0,
        "tle_line1": "1 34097U 97051DG  25356.42369964  .00004282  00000+0  14468-2 0  9999",
        "tle_line2": "2 34097  86.1999 357.1326 0081628 330.4879  29.1720 14.34850685872588"
      },
      "geometry": {
        "type": "Point",
        "coordinates": [
          0.8272457271486869,
          47.293567939253755
        ]
      }
    },
    {
      "type": "Feature",
      "properties": {
        "norad_id": 34145,
        "name": "IRIDIUM 33 DEB",
        "group": "iridium-33-debris",
        "lat": -63.52375113807377,
        "lon": 155.4177495231152,
        "alt_km": 797.5805892055414,
        "timestamp": "2025-12-23T09:49:07.467984+00:00",
        "meta_object_name": "IRIDIUM 33 DEB",
        "meta_object_id": "1997-051DY",
        "meta_epoch": "2025-12-22T16:02:40.191072",
        "meta_mean_motion": 14.42355185,
        "meta_eccentricity": 0.0055643,
        "meta_inclination": 86.2124,
        "meta_ra_of_asc_node": 328.1041,
        "meta_arg_of_pericenter": 62.2939,
        "meta_mean_anomaly": 298.3891,
        "meta_ephemeris_type": 0,
        "meta_classification_type": "U",
        "meta_norad_cat_id": 34145,
        "meta_element_set_no": 999,
        "meta_rev_at_epoch": 87781,
        "meta_bstar": 0.0011008747,
        "meta_mean_motion_dot": 3.725e-05,
        "meta_mean_motion_ddot": 0,
        "tle_line1": "1 34145U 97051DY  25356.66852073  .00003725  00000+0  11009-2 0  9996",
        "tle_line2": "2 34145  86.2124 328.1041 0055643  62.2939 298.3891 14.42355185877814"
      },
      "geometry": {
        "type": "Point",
        "coordinates": [
          155.4177495231152,
          -63.52375113807377
        ]
      }
    },
    {
      "type": "Feature",
      "properties": {
        "norad_id": 34146,
        "name": "IRIDIUM 33 DEB",
        "group": "iridium-33-debris",
        "lat": 39.455858962975796,
        "lon": 162.02017243265192,
        "alt_km": 712.1157889521437,
        "timestamp": "2025-12-23T09:49:07.467994+00:00",
        "meta_object_name": "IRIDIUM 33 DEB",
        "meta_object_id": "1997-051DZ",
        "meta_epoch": "2025-12-22T12:12:34.513056",
        "meta_mean_motion": 14.49108605,
        "meta_eccentricity": 0.0026525,
        "meta_inclination": 86.2838,
        "meta_ra_of_asc_node": 345.4841,
        "meta_arg_of_pericenter": 187.7667,
        "meta_mean_anomaly": 298.6983,
        "meta_ephemeris_type": 0,
        "meta_classification_type": "U",
        "meta_norad_cat_id": 34146,
        "meta_element_set_no": 999,
        "meta_rev_at_epoch": 88248,
        "meta_bstar": 0.00085220356,
        "meta_mean_motion_dot": 3.272e-05,
        "meta_mean_motion_ddot": 0,
        "tle_line1": "1 34146U 97051DZ  25356.50873279  .00003272  00000+0  85220-3 0  9995",
        "tle_line2": "2 34146  86.2838 345.4841 0026525 187.7667 298.6983 14.49108605882489"
      },
      "geometry": {
        "type": "Point",
        "coordinates": [
          162.02017243265192,
          39.455858962975796
        ]
      }
    },
    {
      "type": "Feature",
      "properties": {
        "norad_id": 34159,
        "name": "IRIDIUM 33 DEB",
        "group": "iridium-33-debris",
        "lat": 10.410976978525568,
        "lon": -136.9800670788128,
        "alt_km": 762.0365589450021,
        "timestamp": "2025-12-23T09:49:07.468005+00:00",
        "meta_object_name": "IRIDIUM 33 DEB",
        "meta_object_id": "1997-051EN",
        "meta_epoch": "2025-12-22T02:58:50.860992",
        "meta_mean_motion": 14.38515401,
        "meta_eccentricity": 0.00260752,
        "meta_inclination": 86.3498,
        "meta_ra_of_asc_node": 44.2398,
        "meta_arg_of_pericenter": 254.6532,
        "meta_mean_anomaly": 105.1785,
        "meta_ephemeris_type": 0,
        "meta_classification_type": "U",
        "meta_norad_cat_id": 34159,
        "meta_element_set_no": 999,
        "meta_rev_at_epoch": 88094,
        "meta_bstar": 0.00034381361,
        "meta_mean_motion_dot": 1.073e-05,
        "meta_mean_motion_ddot": 0,
        "tle_line1": "1 34159U 97051EN  25356.12419978  .00001073  00000+0  34381-3 0  9998",
        "tle_line2": "2 34159  86.3498  44.2398 0026075 254.6532 105.1785 14.38515401880947"
      },
      "geometry": {
        "type": "Point",
        "coordinates": [
          -136.9800670788128,
          10.410976978525568
        ]
      }
    }
  ]
}